{"type": "FeatureCollection", "features": [ {"type": "Feature", "properties": {"norad_id": 34433, "name": "COSMOS 2251 DEB", "group": "cosmos-2251-debris", "lat": -46.33707160846898, "lon": 117.22446711136335, "alt_km": 771.7039547162103, "timestamp": "2025-12-24T03:53:30.041579+00:00", "meta": {"OBJECT_NAME": "COSMOS 2251 DEB", "OBJECT_ID": "1993-036SA", "EPOCH": "2025-12-22T16:26:02.164992", "MEAN_MOTION": 14.12893248, "ECCENTRICITY": 0.01527957, "INCLINATION": 74.0095, "RA_OF_ASC_NODE": 137.3252, "ARG_OF_PERICENTER": 273.2963, "MEAN_ANOMALY": 85.0708, "EPHEMERIS_TYPE": 0, "CLASSIFICATION_TYPE": "U", "NORAD_CAT_ID": 34433, "ELEMENT_SET_NO": 999, "REV_AT_EPOCH": 86090, "BSTAR": 0.00096242284, "MEAN_MOTION_DOT": 1.975e-05, "MEAN_MOTION_DDOT": 0}, "tle": {"line1": "1 34433U 93036SA  25356.68474728  .00001975  00000+0  96242-3 0  9992", "line2": "2 34433  74.0095 137.3252 0152795 273.2963  85.0708 14.12893248860901"}}, "geometry": {"type": "Point", "coordinates": [117.22446711136335, -46.33707160846898]}}, {"type": "Feature", "properties": {"norad_id": 34434, "name": "COSMOS 2251 DEB", "group": "cosmos-2251-debris", "lat": -26.23001905237439, "lon": -17.3962947539494, "alt_km": 1110.5687034007105, "timestamp": "2025-12-24T03:53:30.041589+00:00", "meta": {"OBJECT_NAME": "COSMOS 2251 DEB", "OBJECT_ID": "1993-036SB", "EPOCH": "2025-12-23T19:43:16.868064", "MEAN_MOTION": 13.89871377, "ECCENTRICITY": 0.0273668, "INCLINATION": 74.0622, "RA_OF_ASC_NODE": 351.2762, "ARG_OF_PERICENTER": 125.8974, "MEAN_ANOMALY": 305.617, "EPHEMERIS_TYPE": 0, "CLASSIFICATION_TYPE": "U", "NORAD_CAT_ID": 34434, "ELEMENT_SET_NO": 999, "REV_AT_EPOCH": 84120, "BSTAR": 0.001792, "MEAN_MOTION_DOT": 2.96e-05, "MEAN_MOTION_DDOT": 0}, "tle": {"line1": "1 34434U 93036SB  25357.82172301  .00002960  00000+0  17920-2 0  9992", "line2": "2 34434  74.0622 351.2762 0273668 125.8974 305.6170 13.89871377841206"}}, "geometry": {"type": "Point", "coordinates": [-17.3962947539494, -26.23001905237439]}}, {"type": "Feature", "properties": {"norad_id": 34446, "name": "COSMOS 2251 DEB", "group": "cosmos-2251-debris", "lat": 73.36475513533335, "lon": 109.14035636699933, "alt_km": 717.5630259076624, "timestamp": "2025-12-24T03:53:30.041599+00:00", "meta": {"OBJECT_NAME": "COSMOS 2251 DEB", "OBJECT_ID": "1993-036SP", "EPOCH": "2025-12-23T04:18:19.444608", "MEAN_MOTION": 14.49363759, "ECCENTRICITY": 0.00506388, "INCLINATION": 74.0415, "RA_OF_ASC_NODE": 37.704, "ARG_OF_PERICENTER": 173.2295, "MEAN_ANOMALY": 186.9561, "EPHEMERIS_TYPE": 0, "CLASSIFICATION_TYPE": "U", "NORAD_CAT_ID": 34446, "ELEMENT_SET_NO": 999, "REV_AT_EPOCH": 88845, "BSTAR": 0.00011175749, "MEAN_MOTION_DOT": 4.06e-06, "MEAN_MOTION_DDOT": 0}, "tle": {"line1": "1 34446U 93036SP  25357.17939172  .00000406  00000+0  11176-3 0  9991", "line2": "2 34446  74.0415  37.7040 0050638 173.2295 186.9561 14.49363759888456"}}, "geometry": {"type": "Point", "coordinates": [109.14035636699933, 73.36475513533335]}}, {"type": "Feature", "properties": {"norad_id": 34449, "name": "COSMOS 2251 DEB", "group": "cosmos-2251-debris", "lat": -42.52282470935642, "lon": 32.28915861160628, "alt_km": 596.9739410261445, "timestamp": "2025-12-24T03:53:30.041609+00:00", "meta": {"OBJECT_NAME": "COSMOS 2251 DEB", "OBJECT_ID": "1993-036SS", "EPOCH": "2025-12-23T04:16:41.219904", "MEAN_MOTION": 14.95406741, "ECCENTRICITY": 0.00227012, "INCLINATION": 74.0323, "RA_OF_ASC_NODE": 49.4976, "ARG_OF_PERICENTER": 85.859, "MEAN_ANOMALY": 335.1297, "EPHEMERIS_TYPE": 0, "CLASSIFICATION_TYPE": "U", "NORAD_CAT_ID": 34449, "ELEMENT_SET_NO": 999, "REV_AT_EPOCH": 88849, "BSTAR": 0.0025913641, "MEAN_MOTION_DOT": 0.00028864, "MEAN_MOTION_DDOT": 0}, "tle": {"line1": "1 34449U 93036SS  25357.17825486  .00028864  00000+0  25914-2 0  9998", "line2": "2 34449  74.0323  49.4976 0022701  85.8590 335.1297 14.95406741888499"}}, "geometry": {"type": "Point", "coordinates": [32.28915861160628, -42.52282470935642]}}, {"type": "Feature", "properties": {"norad_id": 34451, "name": "COSMOS 2251 DEB", "group": "cosmos-2251-debris", "lat": -42.496512782835644, "lon": 49.62458034497888, "alt_km": 593.9206751385227, "timestamp": "2025-12-24T03:53:30.041620+00:00", "meta": {"OBJECT_NAME": "COSMOS 2251 DEB", "OBJECT_ID": "1993-036SU", "EPOCH": "2025-12-22T05:33:05.101056", "MEAN_MOTION": 14.96073953, "ECCENTRICITY": 0.00238449, "INCLINATION": 74.0466, "RA_OF_ASC_NODE": 68.7153, "ARG_OF_PERICENTER": 82.7849, "MEAN_ANOMALY": 277.6045, "EPHEMERIS_TYPE": 0, "CLASSIFICATION_TYPE": "U", "NORAD_CAT_ID": 34451, "ELEMENT_SET_NO": 999, "REV_AT_EPOCH": 88777, "BSTAR": 0.0029135722, "MEAN_MOTION_DOT": 0.00033055, "MEAN_MOTION_DDOT": 0}, "tle": {"line1": "1 34451U 93036SU  25356.23130904  .00033055  00000+0  29136-2 0  9999", "line2": "2 34451  74.0466  68.7153 0023844  82.7849 277.6045 14.96073953887770"}}, "geometry": {"type": "Point", "coordinates": [49.62458034497888, -42.496512782835644]}}, {"type": "Feature", "properties": {"norad_id": 34452, "name": "COSMOS 2251 DEB", "group": "cosmos-2251-debris", "lat": -18.316343590702914, "lon": 153.73427480464645, "alt_km": 548.4624590407511, "timestamp": "2025-12-24T03:53:30.041630+00:00", "meta": {"OBJECT_NAME": "COSMOS 2251 DEB", "OBJECT_ID": "1993-036SV", "EPOCH": "2025-12-23T16:55:54.737760", "MEAN_MOTION": 15.11969996, "ECCENTRICITY": 0.0064426, "INCLINATION": 74.0321, "RA_OF_ASC_NODE": 160.1187, "ARG_OF_PERICENTER": 233.9926, "MEAN_ANOMALY": 141.7643, "EPHEMERIS_TYPE": 0, "CLASSIFICATION_TYPE": "U", "NORAD_CAT_ID": 34452, "ELEMENT_SET_NO": 999, "REV_AT_EPOCH": 90828, "BSTAR": 0.00092066, "MEAN_MOTION_DOT": 0.00016606, "MEAN_MOTION_DDOT": 0}, "tle": {"line1": "1 34452U 93036SV  25357.70549465  .00016606  00000+0  92066-3 0  9995", "line2": "2 34452  74.0321 160.1187 0064426 233.9926 141.7643 15.11969996908286"}}, "geometry": {"type": "Point", "coordinates": [153.73427480464645, -18.316343590702914]}}, {"type": "Feature", "properties": {"norad_id": 34454, "name": "COSMOS 2251 DEB", "group": "cosmos-2251-debris", "lat": -68.04544342836778, "lon": 121.76056092638035, "alt_km": 757.2272397399565, "timestamp": "2025-12-24T03:53:30.041640+00:00", "meta": {"OBJECT_NAME": "COSMOS 2251 DEB", "OBJECT_ID": "1993-036SX", "EPOCH": "2025-12-23T03:20:48.956064", "MEAN_MOTION": 14.38824144, "ECCENTRICITY": 0.00359204, "INCLINATION": 74.0586, "RA_OF_ASC_NODE": 258.485, "ARG_OF_PERICENTER": 318.9511, "MEAN_ANOMALY": 40.8941, "EPHEMERIS_TYPE": 0, "CLASSIFICATION_TYPE": "U", "NORAD_CAT_ID": 34454, "ELEMENT_SET_NO": 999, "REV_AT_EPOCH": 88217, "BSTAR": 0.0002135841, "MEAN_MOTION_DOT": 6.35e-06, "MEAN_MOTION_DDOT": 0}, "tle": {"line1": "1 34454U 93036SX  25357.13945551  .00000635  00000+0  21358-3 0  9991", "line2": "2 34454  74.0586 258.4850 0035920 318.9511  40.8941 14.38824144882172"}}, "geometry": {"type": "Point", "coordinates": [121.76056092638035, -68.04544342836778]}}, {"type": "Feature", "properties": {"norad_id": 34459, "name": "COSMOS 2251 DEB", "group": "cosmos-2251-debris", "lat": 56.81307379841899, "lon": 28.43250525279939, "alt_km": 1025.7955955410052, "timestamp": "2025-12-24T03:53:30.041650+00:00", "meta": {"OBJECT_NAME": "COSMOS 2251 DEB", "OBJECT_ID": "1993-036TC", "EPOCH": "2025-12-22T01:35:59.550144", "MEAN_MOTION": 14.00513623, "ECCENTRICITY": 0.01921145, "INCLINATION": 74.0786, "RA_OF_ASC_NODE": 237.9285, "ARG_OF_PERICENTER": 305.6081, "MEAN_ANOMALY": 52.7285, "EPHEMERIS_TYPE": 0, "CLASSIFICATION_TYPE": "U", "NORAD_CAT_ID": 34459, "ELEMENT_SET_NO": 999, "REV_AT_EPOCH": 85842, "BSTAR": 0.00037140359, "MEAN_MOTION_DOT": 6.22e-06, "MEAN_MOTION_DDOT": 0}, "tle": {"line1": "1 34459U 93036TC  25356.06666146  .00000622  00000+0  37140-3 0  9999", "line2": "2 34459  74.0786 237.9285 0192114 305.6081  52.7285 14.00513623858427"}}, "geometry": {"type": "Point", "coordinates": [28.43250525279939, 56.81307379841899]}}, {"type": "Feature", "properties": {"norad_id": 34464, "name": "COSMOS 2251 DEB", "group": "cosmos-2251-debris", "lat": 73.9731479675487, "lon": 145.48137736936565, "alt_km": 480.619281565836, "timestamp": "2025-12-24T03:53:30.041661+00:00", "meta": {"OBJECT_NAME": "COSMOS 2251 DEB", "OBJECT_ID": "1993-036TH", "EPOCH": "2025-12-23T03:56:05.254080", "MEAN_MOTION": 15.28477233, "ECCENTRICITY": 0.00143439, "INCLINATION": 73.9891, "RA_OF_ASC_NODE": 56.0969, "ARG_OF_PERICENTER": 238.9119, "MEAN_ANOMALY": 121.0675, "EPHEMERIS_TYPE": 0, "CLASSIFICATION_TYPE": "U", "NORAD_CAT_ID": 34464, "ELEMENT_SET_NO": 999, "REV_AT_EPOCH": 89999, "BSTAR": 0.002873803, "MEAN_MOTION_DOT": 0.00080744, "MEAN_MOTION_DDOT": 0}, "tle": {"line1": "1 34464U 93036TH  25357.16394970  .00080744  00000+0  28738-2 0  9995", "line2": "2 34464  73.9891  56.0969 0014343 238.9119 121.0675 15.28477233899991"}}, "geometry": {"type": "Point", "coordinates": [145.48137736936565, 73.9731479675487]}}, {"type": "Feature", "properties": {"norad_id": 34468, "name": "COSMOS 2251 DEB", "group": "cosmos-2251-debris", "lat": -71.13298694421366, "lon": -27.169239841926423, "alt_km": 689.7059344294312, "timestamp": "2025-12-24T03:53:30.041671+00:00", "meta": {"OBJECT_NAME": "COSMOS 2251 DEB", "OBJECT_ID": "1993-036TM", "EPOCH": "2025-12-23T16:44:30.980256", "MEAN_MOTION": 14.47652703, "ECCENTRICITY": 0.0076274, "INCLINATION": 74.0131, "RA_OF_ASC_NODE": 96.6751, "ARG_OF_PERICENTER": 239.3893, "MEAN_ANOMALY": 119.9729, "EPHEMERIS_TYPE": 0, "CLASSIFICATION_TYPE": "U", "NORAD_CAT_ID": 34468, "ELEMENT_SET_NO": 999, "REV_AT_EPOCH": 88620, "BSTAR": 0.00032867, "MEAN_MOTION_DOT": 1.227e-05, "MEAN_MOTION_DDOT": 0}, "tle": {"line1": "1 34468U 93036TM  25357.69758079  .00001227  00000+0  32867-3 0  9999", "line2": "2 34468  74.0131  96.6751 0076274 239.3893 119.9729 14.47652703886201"}}, "geometry": {"type": "Point", "coordinates": [-27.169239841926423, -71.13298694421366]}}]}